{
  "norad_id": 60269,
  "name": "STARLINK-32144",
  "history": [
    {
      "epoch": "2026-03-28T22:11:01.783680",
      "apogee_km": 476.10235454056965,
      "perigee_km": 474.384897355706,
      "latitude_deg": -53.15808550704502,
      "longitude_deg": -64.36468480015174,
      "semi_major_axis_km": 6853.380625948137,
      "eccentricity": 0.0001253,
      "inclination_deg": 53.1594,
      "raan_deg": 323.0786,
      "arg_perigee_deg": 77.1991,
      "mean_anomaly_deg": 282.9149,
      "mean_motion_rev_day": 15.30190436
    },
    {
      "epoch": "2026-03-28T22:11:01.784544",
      "apogee_km": 476.1024916081815,
      "perigee_km": 474.3847602880933,
      "latitude_deg": -53.15808556686296,
      "longitude_deg": -64.36468384019099,
      "semi_major_axis_km": 6853.380625948137,
      "eccentricity": 0.00012532,
      "inclination_deg": 53.1594,
      "raan_deg": 323.0786,
      "arg_perigee_deg": 77.1991,
      "mean_anomaly_deg": 282.9149,
      "mean_motion_rev_day": 15.30190436
    }
  ]
}